{
  "norad_id": 54831,
  "name": "STARLINK-5395",
  "history": [
    {
      "epoch": "2026-05-05T10:41:28.240800Z",
      "apogee_km": 483.6616433949375,
      "perigee_km": 482.4513288639837,
      "latitude_deg": 2.4052241360706855e-05,
      "longitude_deg": 151.82381170049408,
      "height_km": 482.5339524117147,
      "semi_major_axis_km": 6861.19348612946,
      "eccentricity": 8.82e-05,
      "inclination_deg": 43.0005,
      "raan_deg": 175.5118,
      "arg_perigee_deg": 299.5855,
      "mean_anomaly_deg": 60.4909,
      "mean_motion_rev_day": 15.27577532
    },
    {
      "epoch": "2026-05-06T13:22:08.967936Z",
      "apogee_km": 483.5497313592341,
      "perigee_km": 482.65365358599774,
      "latitude_deg": -1.184808578321503e-05,
      "longitude_deg": 104.2798470554729,
      "height_km": 482.8312574042331,
      "semi_major_axis_km": 6861.238692472616,
      "eccentricity": 6.53e-05,
      "inclination_deg": 43.001,
      "raan_deg": 169.2332,
      "arg_perigee_deg": 275.9698,
      "mean_anomaly_deg": 84.1079,
      "mean_motion_rev_day": 15.27562435
    },
    {
      "epoch": "2026-05-07T12:54:30.305664Z",
      "apogee_km": 483.7795466226371,
      "perigee_km": 482.40043999698173,
      "latitude_deg": -1.6396654545573612e-05,
      "longitude_deg": 104.68550837948536,
      "height_km": 482.61654709697024,
      "semi_major_axis_km": 6861.226993309809,
      "eccentricity": 0.0001005,
      "inclination_deg": 43.0018,
      "raan_deg": 163.6945,
      "arg_perigee_deg": 291.2561,
      "mean_anomaly_deg": 68.8183,
      "mean_motion_rev_day": 15.27566342
    },
    {
      "epoch": "2026-05-08T18:43:29.484768Z",
      "apogee_km": 483.3925428343373,
      "perigee_km": 483.0000745690795,
      "latitude_deg": 2.2815088786345352e-05,
      "longitude_deg": 9.19944917535736,
      "height_km": 483.0165356445637,
      "semi_major_axis_km": 6861.333308701708,
      "eccentricity": 2.86e-05,
      "inclination_deg": 42.9999,
      "raan_deg": 156.6795,
      "arg_perigee_deg": 256.8764,
      "mean_anomaly_deg": 103.2056,
      "mean_motion_rev_day": 15.27530838
    },
    {
      "epoch": "2026-05-09T18:15:48.799008Z",
      "apogee_km": 483.510990360277,
      "perigee_km": 482.56963683285085,
      "latitude_deg": -3.769469648222748e-07,
      "longitude_deg": 9.611346331884258,
      "height_km": 482.81630341380117,
      "semi_major_axis_km": 6861.177313596563,
      "eccentricity": 6.86e-05,
      "inclination_deg": 43.0012,
      "raan_deg": 151.1386,
      "arg_perigee_deg": 270.0267,
      "mean_anomaly_deg": 90.0506,
      "mean_motion_rev_day": 15.27582933
    },
    {
      "epoch": "2026-05-10T17:48:10.744128Z",
      "apogee_km": 483.58780836660026,
      "perigee_km": 482.58606967150354,
      "latitude_deg": -2.029186785074711e-05,
      "longitude_deg": 10.012355868592397,
      "height_km": 482.9062980371038,
      "semi_major_axis_km": 6861.223939019052,
      "eccentricity": 7.3e-05,
      "inclination_deg": 43.0025,
      "raan_deg": 145.5978,
      "arg_perigee_deg": 265.0786,
      "mean_anomaly_deg": 94.9982,
      "mean_motion_rev_day": 15.27567362
    }
  ]
}